[{"OBJECT_NAME":"STARLINK-4720","OBJECT_ID":"2022-111AD","EPOCH":"2026-03-09T17:15:59.769792","MEAN_MOTION":15.52966516,"ECCENTRICITY":0.00033906,"INCLINATION":53.211,"RA_OF_ASC_NODE":239.7837,"ARG_OF_PERICENTER":149.7852,"MEAN_ANOMALY":210.3356,"EPHEMERIS_TYPE":0,"CLASSIFICATION_TYPE":"U","NORAD_CAT_ID":53800,"ELEMENT_SET_NO":999,"REV_AT_EPOCH":19416,"BSTAR":0.00052142465,"MEAN_MOTION_DOT":0.00032713,"MEAN_MOTION_DDOT":0},{"OBJECT_NAME":"STARLINK-36701","OBJECT_ID":"2026-022L","EPOCH":"2026-03-09T22:00:01.999584","MEAN_MOTION":15.65838761,"ECCENTRICITY":0.00014629,"INCLINATION":97.2848,"RA_OF_ASC_NODE":102.901,"ARG_OF_PERICENTER":69.1747,"MEAN_ANOMALY":319.2305,"EPHEMERIS_TYPE":0,"CLASSIFICATION_TYPE":"U","NORAD_CAT_ID":67658,"ELEMENT_SET_NO":999,"REV_AT_EPOCH":608,"BSTAR":-0.021311483,"MEAN_MOTION_DOT":-0.01911419,"MEAN_MOTION_DDOT":0}]
